found_country,used,continent,address,country_name,latitude,alt_addr,country_code,longitude
True,0,North America,"Washington, District of Columbia, USA",USA,38.8950368,,US,-77.0365427
True,0,North America,"Hope, Hempstead, Arkansas, USA",USA,33.6670616,,US,-93.5915665
True,0,North America,"Chicago, Cook, Illinois, USA",USA,41.8755616,,US,-87.6244212
True,0,North America,"Sherman, Grayson, Texas, USA",USA,33.6398609,,US,-96.6089146
True,0,North America,"Missouri, USA",USA,38.7604815,,US,-92.5617875
True,0,North America,"Sikeston, Scott, Missouri, USA",USA,36.876719,,US,-89.5878579
True,0,North America,"Bodcaw, Nevada, Arkansas, USA",USA,33.5579004,,US,-93.4063842
True,0,North America,"Tippah, Mississippi, USA",USA,34.7296814,,US,-88.9119403
True,0,North America,"Grayson, Texas, USA",USA,33.5636114,,US,-96.6702111
True,0,North America,"Parker Twp, Nevada, Arkansas, USA",USA,33.6413476,,US,-93.3055491
True,0,North America,"Falkner, Tippah, Mississippi, USA",USA,34.8420376,,US,-88.934228
True,0,North America,"Franklin, Georgia, USA",USA,34.3678642,,US,-83.2156575
True,0,North America,"Florida, USA",USA,27.7567667,,US,-81.4639835
True,0,North America,"Kossuth, Alcorn, Mississippi, USA",USA,34.8732672,,US,-88.6405963
True,0,North America,"Coffee, Alabama, USA",USA,31.3629619,,US,-85.9870669
True,0,North America,"Red Level, Covington, Alabama, USA",USA,31.4071111,,US,-86.6121861
True,0,North America,"Covington, Alabama, USA",USA,31.196549,,US,-86.4597236
True,0,North America,"Butler, Alabama, USA",USA,31.7340713,,US,-86.6754793
True,0,North America,"Ebenezer Cemetery, Parker, Nevada, Arkansas, USA",USA,33.6413476,,US,-93.3055491
True,0,North America,"Union, Louisiana, USA",USA,32.8385899,,US,-92.3910295
True,0,North America,"Oak Grove Cemetery, DeRoan Twp, Hempstead, Arkansas, USA",USA,33.6949319,,US,-93.6929825
True,0,North America,"Hempstead, Arkansas, USA",USA,33.6949319,,US,-93.6929825
True,0,North America,"Alabama, USA",USA,33.2588817,,US,-86.8295337
True,0,North America,"Rutherford, Tennessee, USA",USA,35.8563421,,US,-86.4205249
True,0,North America,"Tennessee, USA",USA,35.7730076,,US,-86.2820081
True,0,North America,"Parker, Texas, USA",USA,32.7772597,,US,-97.8045599
True,0,North America,"North Carolina, USA",USA,35.6729639,,US,-79.0392919
True,0,North America,"Ripley, Tippah, Mississippi, USA",USA,34.7307014,,US,-88.9488276
True,0,Europe,Ireland,Ireland,52.865196,,IE,-7.9794599
True,0,North America,"Carnesville, Franklin, Georgia, USA",USA,34.3698266,,US,-83.235155
True,0,North America,"Chesterfield, South Carolina, USA",USA,34.6500578,,US,-80.1417843
True,0,North America,"Early, Georgia, USA",USA,31.3454341,,US,-84.9282058
True,0,North America,"South Carolina, USA",USA,33.6874388,,US,-80.4363743
True,0,North America,"Kershaw, South Carolina, USA",USA,34.3334398,,US,-80.5669895
True,0,North America,"Shover Springs, Hempstead, Arkansas, USA",USA,33.6228953,,US,-93.5304543
True,0,North America,"McMinn, Tennessee, USA",USA,35.444223,,US,-84.624875
True,0,North America,"Arkansas, USA",USA,35.2048883,,US,-92.4479108
True,0,North America,"Union, Mississippi, USA",USA,34.4834555,,US,-88.9789198
True,0,North America,"Marshall, Mississippi, USA",USA,34.7329208,,US,-89.4725635
True,0,North America,"Randolph, North Carolina, USA",USA,35.7142874,,US,-79.7975166
True,0,North America,"Kentucky, USA",USA,37.5726028,,US,-85.1551411
True,0,North America,"Anson, North Carolina, USA",USA,34.9705848,,US,-80.0958187
True,0,North America,"Orangeburg, South Carolina, USA",USA,33.4918203,,US,-80.8556476
True,0,North America,"Longstreet, Coffee, Alabama, USA",USA,31.3629619,,US,-85.9870669
True,0,North America,"Darlington, Darlington, South Carolina, USA",USA,34.3028537,,US,-79.8710831
True,0,North America,"Ramer, Montgomery, Alabama, USA",USA,32.0500362,,US,-86.2199457
True,0,North America,"Montgomery, Alabama, USA",USA,32.3777111,,US,-86.3090775
True,0,North America,"Mt. Pleasant, Crenshaw, Alabama, USA",USA,31.8324874,,US,-86.3114018
True,0,North America,"Crenshaw, Alabama, USA",USA,31.6809362,,US,-86.3244009
True,0,North America,"Lincoln, North Carolina, USA",USA,35.4866424,,US,-81.2062724
True,0,North America,"Macon, Tennessee, USA",USA,36.5237906,,US,-86.0130908
True,0,North America,"Little Rock, Pulaski, Arkansas, USA",USA,34.7465071,,US,-92.2896267
True,0,Europe,"Tipperary, Ireland",Ireland,52.4734839,,IE,-8.1614446
True,0,Europe,"London, England",England,51.5074456,,GB,-0.1277653
True,0,North America,"Java, Wyoming, New York, USA",USA,42.6609691,,US,-78.3886656
True,0,North America,"Fulton, Whiteside, Illinois, USA",USA,41.8662157,,US,-90.1657833
True,0,North America,"Beverly Hills, Los Angeles, California, USA",USA,34.0696501,,US,-118.3963062
True,0,North America,"Illinois, USA",USA,40.0796606,,US,-89.4337288
True,0,North America,"Clarkson, Monroe, New York, USA",USA,43.233116,,US,-77.927513
True,0,North America,"New York, USA",USA,40.7127281,,US,-74.0060152
True,0,Europe,"Renfrewshire, Scotland",Scotland,55.833333,,GB,-4.5
True,0,North America,"Queens, New Brunswick, Canada",Canada,45.8838758,,CA,-65.9861428
True,0,Europe,"Argyle, Scotland",Scotland,55.9523918,,GB,-3.2086898
True,0,Europe,"Paisley, Renfrewshire, Scotland",Scotland,55.8455828,,GB,-4.4239646
True,0,Europe,"Surrey, England",England,51.2715316,,GB,-0.3414524
True,0,North America,"Clyde Twp, Whiteside, Illinois, USA",USA,41.7612332,,US,-89.9214744
True,0,North America,"Tampico, Whiteside, Illinois, USA",USA,41.6324811,,US,-89.7850393
True,0,Europe,"Epson, Surrey, England",England,51.2715316,,GB,-0.3414524
True,0,Europe,England,England,52.5310214,,GB,-1.2649062
True,0,North America,"Port Tobacco, Charles, Maryland, USA",USA,38.5112633,,US,-77.0204083
True,0,North America,"Frederick, Maryland, USA",USA,39.415779,,US,-77.4127562
True,0,North America,"Charles, Maryland, USA",USA,38.4991611,,US,-77.027847
True,0,North America,"Loudon, Laurel, Kentucky, USA",USA,37.1000973,,US,-84.1148273
True,0,North America,"Anchorage, Jefferson, Kentucky, USA",USA,38.2665993,,US,-85.5330114
True,0,North America,"Galveston, Galveston, Texas, USA",USA,29.3056996,,US,-94.7933252
True,0,North America,"Jefferson, Kentucky, USA",USA,38.1787175,,US,-85.664528
True,0,North America,"Owensboro, Daviess, Kentucky, USA",USA,37.7742152,,US,-87.1133304
True,0,North America,"Russellville, Franklin, Alabama, USA",USA,34.5042652,,US,-87.7332823
True,0,North America,"Petersburg, Independent Cities, Virginia, USA",USA,37.1232245,,US,-78.4927721
True,0,North America,"Phoenix, Maricopa, Arizona, USA",USA,33.4484367,,US,-112.074141
True,0,North America,"Scottsdale, Maricopa, Arizona, USA",USA,33.4942189,,US,-111.926018
True,0,North America,"Great Barrington, Berkshire, Massachusetts, USA",USA,42.1939364,,US,-73.362773
True,0,North America,"Pittsfield, Berkshire, Massachusetts, USA",USA,42.4484778,,US,-73.2541069
True,0,North America,"Orient, Suffolk, New York, USA",USA,41.1372575,,US,-72.2795773
True,0,North America,"Manhattan, New York, New York, USA",USA,40.7579554,,US,-73.9855319
True,0,North America,"Galesburg, Knox, Illinois, USA",USA,40.9475652,,US,-90.3712169
True,0,Europe,"Galty, Knockweaddown, Ireland",Ireland,52.865196,,IE,-7.9794599
True,0,North America,"St Joseph, Andrew, Missouri, USA",USA,40.115276,,US,-94.8239361
True,0,North America,"St Marys, Elk, Pennsylvania, USA",USA,41.4280432,,US,-78.5611275
True,0,North America,"Los Angeles, Los Angeles, California, USA",USA,34.0536909,,US,-118.242766
True,0,North America,"Hempstead, Nassau, New York, USA",USA,40.6736812,,US,-73.6190736
True,0,North America,"Cape May, New Jersey, USA",USA,39.1765386,,US,-74.8012119
True,0,North America,"Smith Cemetery, Greene, Pennsylvania, USA",USA,39.9128529,,US,-80.117838
True,0,North America,"Morgan Twp, Greene, Pennsylvania, USA",USA,39.956853,,US,-80.0968188
True,0,North America,"Springfield, Columbiana, Ohio, USA",USA,40.889855,,US,-80.6785145
True,0,North America,"Shrewsbury, Monmouth, New Jersey, USA",USA,40.3295547,,US,-74.0615285
True,0,North America,"Butlerville, Jennings, Indiana, USA",USA,39.0344983,,US,-85.5127432
True,0,North America,"Jefferson Twp, Fayette, Pennsylvania, USA",USA,40.054026,,US,-79.8336541
True,0,North America,"Whittier, Los Angeles, California, USA",USA,33.9749136,,US,-118.0338664
True,0,North America,"New Jersey, USA",USA,40.0757384,,US,-74.4041622
True,0,North America,"Burlington, New Jersey, USA",USA,39.9325409,,US,-74.7226665
True,0,North America,"West Branch, Cedar, Iowa, USA",USA,41.6720735,,US,-91.3459735
True,0,North America,"Massachusetts, USA",USA,42.3788774,,US,-72.032366
True,0,North America,"Mahoning, Ohio, USA",USA,40.9830133,,US,-80.7826416
True,0,North America,"Springfield, Mahoning, Ohio, USA",USA,40.9433676,,US,-80.5754631
True,0,North America,"Baltimore, Maryland, USA",USA,39.2908816,,US,-76.610759
True,0,North America,"Gunpowder, Harford, Maryland, USA",USA,39.4374278,,US,-76.3690732
True,0,North America,"Monmouth, New Jersey, USA",USA,40.2932319,,US,-74.1671114
True,0,North America,"Richland, Bucks, Pennsylvania, USA",USA,40.4454352,,US,-75.3139227
True,0,North America,"Columbiana, Ohio, USA",USA,40.7787016,,US,-80.7648602
True,0,North America,"Colerain, Belmont, Ohio, USA",USA,40.1259045,,US,-80.8086973
True,0,North America,"Elk Twp., Vinton, Ohio, USA",USA,39.2614972,,US,-82.474952
True,0,North America,"La Habra, Orange, California, USA",USA,33.9316066,,US,-117.9454867
True,0,North America,"Yorba Linda, Orange, California, USA",USA,33.8901096,,US,-117.8249705
True,0,North America,"Ely, White Pine, Nevada, USA",USA,39.2480588,,US,-114.891718
True,0,North America,"West Point, Orange, New York, USA",USA,41.3926455,,US,-73.9599242
True,0,North America,"Muncie, Delaware, Indiana, USA",USA,40.1936892,,US,-85.3865271
True,0,North America,"Smith Twp, Washington, Pennsylvania, USA",USA,40.369102,,US,-80.3668343
True,0,North America,"Mount Pleasant, Vinton, Ohio, USA",USA,39.3928463,,US,-82.4568223
True,0,North America,"Swan, Vinton, Ohio, USA",USA,39.3360225,,US,-82.4692821
True,0,North America,"New Plymouth, Vinton, Ohio, USA",USA,39.3847914,,US,-82.3962649
True,0,North America,"Hocking, Ohio, USA",USA,39.4644491,,US,-82.5469722
True,0,North America,"Vinton, Ohio, USA",USA,39.2744355,,US,-82.4740302
True,0,North America,"Washington, Washington, Pennsylvania, USA",USA,40.1709768,,US,-80.2454528
True,0,North America,"Gettysburg, Adams, Pennsylvania, USA",USA,39.8308973,,US,-77.231012
True,0,North America,"McArthur, Vinton, Ohio, USA",USA,39.2464596,,US,-82.4784898
True,0,North America,"Harford, Maryland, USA",USA,39.548545,,US,-76.3048991
True,0,North America,"Morgan, Ohio, USA",USA,39.5943953,,US,-81.877978
True,0,North America,"Bigger Twp., Jennings, Indiana, USA",USA,38.9957749,,US,-85.6359201
True,0,North America,"West Pike Run, Washington, Pennsylvania, USA",USA,40.0428063,,US,-79.9588284
True,0,North America,"Goshen, Mahoning, Ohio, USA",USA,40.9589057,,US,-80.9152613
True,0,North America,"Middletown, Cape May, New Jersey, USA",USA,39.271226,,US,-74.7434965
True,0,Europe,"Matlock, Derbyshire, England",England,53.1374514,,GB,-1.5544694
True,0,North America,"Brandywine, New Castle, Delaware, USA",USA,39.8295563,,US,-75.5343681
True,0,North America,"Delaware, USA",USA,38.6920451,,US,-75.4013315
True,0,North America,"Fermanagh, Juniata, Pennsylvania, USA",USA,40.6129018,,US,-77.4112056
True,0,North America,"Maryland, USA",USA,39.5162401,,US,-76.9382069
True,0,North America,"Washington, Hocking, Ohio, USA",USA,39.4374403,,US,-82.4543621
True,0,North America,"Centre, Pennsylvania, USA",USA,40.9381735,,US,-77.7865722
True,0,North America,"Indianola, Warren, Iowa, USA",USA,41.3604966,,US,-93.5613292
True,0,North America,"Perry, Ohio, USA",USA,39.6370289,,US,-82.2044367
True,0,North America,"Colona, Henry, Illinois, USA",USA,41.4754634,,US,-90.3603496
True,0,North America,"Colona Twp., Henry, Illinois, USA",USA,41.3418549,,US,-90.1177442
True,0,North America,"Washington, Pennsylvania, USA",USA,40.1943798,,US,-80.2541251
True,0,North America,"Morris, New Jersey, USA",USA,40.8679538,,US,-74.5601181
True,0,North America,"Lancaster, Pennsylvania, USA",USA,40.0379958,,US,-76.3056707
True,0,North America,"Salisbury Twp., Lancaster, Pennsylvania, USA",USA,40.0403575,,US,-75.9937401
True,0,North America,"Ohio, USA",USA,40.2253569,,US,-82.6881395
True,0,North America,"Belmont, Ohio, USA",USA,40.0057737,,US,-81.0097516
True,0,North America,"Plumstead, Bucks, Pennsylvania, USA",USA,40.3862315,,US,-75.1188504
True,0,North America,"Caln, Chester, Pennsylvania, USA",USA,39.9909398,,US,-75.7802235
True,0,North America,"Warrington Twp., York, Pennsylvania, USA",USA,40.0656653,,US,-76.9368682
True,0,North America,"Clover Hill, Washington, Pennsylvania, USA",USA,40.0859059,,US,-79.97894
True,0,North America,"York, Pennsylvania, USA",USA,39.962493,,US,-76.7276989
True,0,North America,"Pennsylvania, USA",USA,40.9699889,,US,-77.7278831
True,0,Europe,Wales,Wales,52.2928116,,GB,-3.73893
True,0,North America,"Iowa, USA",USA,41.9216734,,US,-93.3122705
True,0,North America,"Upper Darby, Delaware, Pennsylvania, USA",USA,39.9284459,,US,-75.2737955
True,0,North America,"Christana, New Castle, Delaware, USA",USA,39.6159851,,US,-75.662956
True,0,North America,"Roxbury, Morris, New Jersey, USA",USA,40.9026666,,US,-74.6850935
True,0,Europe,"Balleymoney, Antrim, Northern Ireland",United Kingdom,54.715139,,GB,-6.2192038
True,0,North America,"Hampshire, West Virginia, USA",USA,39.3015109,,US,-78.6212207
True,0,Europe,"Antrim, Northern Ireland",United Kingdom,54.715139,,GB,-6.2192038
True,0,North America,"Pikeland, Chester, Pennsylvania, USA",USA,40.1003815,,US,-75.6115893
True,0,North America,"Coatesville, Chester, Pennsylvania, USA",USA,39.9831616,,US,-75.8238355
True,0,North America,"New Castle, New Castle, Delaware, USA",USA,39.6620572,,US,-75.5663132
True,0,North America,"Newberry, York, Pennsylvania, USA",USA,39.9639616,,US,-76.7366061
True,0,North America,"Framingham, Middlesex, Massachusetts, USA",USA,42.2773177,,US,-71.4165905
True,0,North America,"Northampton, Burlington, New Jersey, USA",USA,40.0362843,,US,-74.857199
True,0,North America,"Evesham, Burlington, New Jersey, USA",USA,39.851752,,US,-74.8917412
True,0,North America,"Sinking Spring, Hodgenville, Larue, Kentucky, USA",USA,37.5737487,,US,-85.740353
True,0,North America,"Springfield, Sangamon, Illinois, USA",USA,39.7990175,,US,-89.6439575
True,0,North America,"Augusta, Virginia, USA",USA,38.1793809,,US,-79.1525761
True,0,North America,"Farmington, Fulton, Illinois, USA",USA,40.6980933,,US,-90.0059483
True,0,North America,"Campbell, Kentucky, USA",USA,38.9339799,,US,-84.3715286
True,0,North America,"Gentryville, Spencer, Indiana, USA",USA,38.1042183,,US,-87.0330532
True,0,North America,"Berks, Pennsylvania, USA",USA,40.4113762,,US,-75.9433305
True,0,North America,"Freehold, Monmouth, New Jersey, USA",USA,40.2601096,,US,-74.2737573
True,0,North America,"Linville, Rockingham, Virginia, USA",USA,38.521664,,US,-78.8347536
True,0,North America,"Rockingham, Virginia, USA",USA,38.5080288,,US,-78.8949442
True,0,North America,"Smithtown, Suffolk, New York, USA",USA,40.8559314,,US,-73.2006687
True,0,North America,"McGaheysville, Rockingham, Virginia, USA",USA,38.3712399,,US,-78.7322449
True,0,North America,"Farnham, Richmond, Virginia, USA",USA,37.8854129,,US,-76.6249557
True,0,North America,"Woodtown, Nelson, Kentucky, USA",USA,37.8078463,,US,-85.4741595
True,0,North America,"Howard, Maryland, USA",USA,39.2305289,,US,-76.9166241
True,0,North America,"Hingham, Plymouth, Massachusetts, USA",USA,42.2417669,,US,-70.8897676
True,0,North America,"Amity, Berks, Pennsylvania, USA",USA,40.2679125,,US,-75.7340051
True,0,North America,"Sussex, Delaware, USA",USA,38.6908097,,US,-75.3691421
True,0,Europe,"Chester, Cheshire, England",England,53.1908873,,GB,-2.8908955
True,0,North America,"Oyster Bay, Nassau, New York, USA",USA,40.7696568,,US,-73.4998608
True,0,North America,"Richmond, Virginia, USA",USA,37.5385087,,US,-77.43428
True,0,North America,"Lancaster, Virginia, USA",USA,37.7625738,,US,-76.4723233
True,0,North America,"Annapolis, Anne Arundel, Maryland, USA",USA,38.9786401,,US,-76.492786
True,0,North America,"Anne Arundel, Maryland, USA",USA,38.9722583,,US,-76.573454
True,0,North America,"Scituate, Plymouth, Massachusetts, USA",USA,42.1924492,,US,-70.7261966
True,0,North America,"Gravesend, Long Island City, Queens, New York, USA",USA,40.7455316,,US,-73.9484995
True,0,Europe,"Kingston Deverill, Wiltshire, England",England,51.1276618,,GB,-2.2188942
True,0,North America,"Virginia, USA",USA,37.1232245,,US,-78.4927721
True,0,North America,"Piscataway, Middlesex, New Jersey, USA",USA,40.5464326,,US,-74.4660542
True,0,Europe,"Hingham, Norfolk, England",England,52.5796849,,GB,0.9845613
True,0,North America,"Hull, Norfolk, Massachusetts, USA",USA,42.2684008,,US,-70.956672
True,0,Europe,"Witchampton, Dorset, England",England,50.8579978,,GB,-2.0168718
True,0,Europe,"Caversham, Oxfordshire, England",England,51.4852222,,GB,-0.9480326
True,0,North America,"Weymouth, Norfolk, Massachusetts, USA",USA,42.2212188,,US,-70.9391625
True,0,North America,"Lexington, Fayette, Kentucky, USA",USA,38.0464066,,US,-84.4970393
True,0,North America,"Arlington, Arlington, Virginia, USA",USA,38.8809358,,US,-77.1079246
True,0,North America,"Manchester, Bennington, Vermont, USA",USA,43.176909,,US,-73.0568716
True,0,North America,"New York, New York, New York, USA",USA,40.7127281,,US,-74.0060152
True,0,North America,"Pope's Creek, Westmoreland, Virginia, USA",USA,38.1420779,,US,-76.9013489
True,0,North America,"Mount Vernon, Fairfax, Virginia, USA",USA,38.710179,,US,-77.0888199
True,0,North America,"New Kent, Virginia, USA",USA,37.4974701,,US,-76.9990453
True,0,North America,"Wakefield, Westmoreland, Virginia, USA",USA,38.1720754,,US,-76.9491371
True,0,North America,"Ferry Farm, King George, Virginia, USA",USA,38.2786312,,US,-77.175356
True,0,North America,"Fredericksburg, Spotsylvania, Virginia, USA",USA,38.2201846,,US,-77.6014545
True,0,North America,"Westmoreland, Virginia, USA",USA,38.1153203,,US,-76.7567355
True,0,North America,"Warner Hall, Gloucester, Gloucester, Virginia, USA",USA,37.3396678,,US,-76.4746982
True,0,Europe,"Whitehaven, Cumberland, England",England,54.5474199,,GB,-3.5885335
True,0,North America,"Epping Forest, Lancaster, Virginia, USA",USA,37.7913044,,US,-76.5258553
True,0,Europe,"Cheshire, England",England,53.2141028,,GB,-2.4717701
True,0,Europe,"Purleigh, Essex, England",England,51.6724344,,GB,0.695894
True,0,North America,"Washington, Westmoreland, Virginia, USA",USA,38.1918855,,US,-76.9208322
True,0,North America,"York, Virginia, USA",USA,37.2230374,,US,-76.5156945
True,0,North America,"Warner Hall, Virginia, USA",USA,37.3396678,,US,-76.4746982
True,0,North America,"Naxera, Gloucester, Virginia, USA",USA,37.3406965,,US,-76.4471701
True,0,North America,"Gloucester, Gloucester, Virginia, USA",USA,37.4148403,,US,-76.529435
True,0,Europe,"Millenbeck, Lancashire, England",England,53.8611712,,GB,-2.5650945
True,0,Europe,"Sulgrave, Northamptonshire, England",England,52.1061958,,GB,-1.1915121
True,0,Europe,"Maldon, Essex, England",England,51.731198,,GB,0.6791849
True,0,Europe,"Spratton, Northamptonshire, England",England,52.3228736,,GB,-0.9477577
True,0,Europe,"Tring, Hertfordshire, England",England,51.7940357,,GB,-0.6609205
True,0,Europe,"Gloucestershire, England",England,51.7643786,,GB,-2.1880662
True,0,Europe,"Norfolk, England",England,52.666667,,GB,1.0
True,0,Europe,"Stone Edge, Lancashire, England",England,53.8633908,,GB,-2.2075841
True,0,Europe,"Linkenholt, Hampshire, England",England,51.3198054,,GB,-1.4762773
True,0,North America,"Yorktown, York, Virginia, USA",USA,37.2356655,,US,-76.5136495
True,0,Europe,"Brington, Northamptonshire, England",England,52.2683065,,GB,-1.036296
True,0,Europe,"Tyes Hall, Cuckfield, Sussex, England",England,51.0055129,,GB,-0.1393153
True,0,Europe,"Little Creaton, Northamptonshire, England",England,52.3378983,,GB,-0.9506195
True,0,Europe,"Colne, Lancashire, England",England,53.8567728,,GB,-2.1691238
True,0,Europe,"Burnley, Lancashire, England",England,53.7907262,,GB,-2.2439196
True,0,Europe,"Saint-Martin-de-Ré, Departement de la Charente-Maritime, Poitou-Charentes, France",France,45.7447048,,FR,-0.6552529
True,0,Europe,"Nether Boddingto, Northamptonshire, England",England,52.3106138,,GB,-0.865913
True,0,Europe,"Radway Grange, Warwickshire, England",England,52.3213064,,GB,-1.5536906
True,0,Europe,"Blakesley, Northamptonshire, England",England,52.1467426,,GB,-1.0877657
True,0,Europe,"Great Creaton, Northamptonshire, England",England,52.3414301,,GB,-0.9628308
True,0,Europe,"Barnside, Lancashire, England",England,53.6688447,,GB,-2.6790876
True,0,Europe,"Faccombe, Hampshire, England",England,51.3171692,,GB,-1.4425384
True,0,Europe,"St Martin, Westminster, London, England",England,51.5088275,,GB,-0.1266769
True,0,Europe,"Scrivelsby, Lincolnshire, England",England,53.1780161,,GB,-0.1023101
True,0,North America,"Williamsburg, Independent Cities, Virginia, USA",USA,37.1232245,,US,-78.4927721
True,0,North America,"New Kent, New Kent, Virginia, USA",USA,37.511702,,US,-76.9864946
True,0,North America,"Eltham, New Kent, Virginia, USA",USA,37.5237559,,US,-76.8260735
True,0,Europe,"Althorpe, Northamptonshire, England",England,52.4035844,,GB,-0.7080124
True,0,Europe,"Picadilliy, Middlesex, England",England,51.5460558,,GB,-0.2537791
True,0,Europe,"Ashe, Musbury, Devon, England",England,50.7577146,,GB,-3.0248222
True,0,Europe,"Blenheim, Oxfordshire, England",England,51.846743,,GB,-1.3765989
True,0,North America,"Milton, Norfolk, Massachusetts, USA",USA,42.2501425,,US,-71.065573
True,0,North America,"College Station, Brazos, Texas, USA",USA,30.6183939,,US,-96.3455991
True,0,North America,"Houston, Harris, Texas, USA",USA,29.7589382,,US,-95.3676974
True,0,North America,"Rye, Westchester, New York, USA",USA,40.9821371,,US,-73.6840902
True,0,North America,"Bristol, Rhode Island, USA",USA,41.6770463,,US,-71.2661597
True,0,North America,"Bristol, Bristol, Rhode Island, USA",USA,41.6770463,,US,-71.2661597
True,0,North America,"Springport, Cayuga, New York, USA",USA,42.853434,,US,-76.6787565
True,0,North America,"Lebanon, New London, Connecticut, USA",USA,41.5901093,,US,-72.1590588
True,0,North America,"Penfield, Monroe, New York, USA",USA,43.1301133,,US,-77.4759588
True,0,North America,"Rochester, Monroe, New York, USA",USA,43.157285,,US,-77.615214
True,0,North America,"Cambridge, Washington, New York, USA",USA,43.007994,,US,-73.4392637
True,0,North America,"Cincinnati, Hamilton, Ohio, USA",USA,39.1014537,,US,-84.5124602
True,0,North America,"Ithaca, Tompkins, New York, USA",USA,42.4374175,,US,-76.5483724
True,0,North America,"Savannah, Chatham, Georgia, USA",USA,32.0790074,,US,-81.0921335
True,0,North America,"Boston, Middlesex, Massachusetts, USA",USA,42.3354481,,US,-71.1682665
True,0,North America,"Brick Church, East Orange, Essex, New Jersey, USA",USA,40.7654209,,US,-74.2189954
True,0,North America,"Columbus, Franklin, Ohio, USA",USA,39.9622601,,US,-83.0007065
True,0,North America,"Franklin, Ohio, USA",USA,39.5589474,,US,-84.3041074
True,0,North America,"Watch Hill, Rhode Island, USA",USA,41.3142611,,US,-71.849017
True,0,North America,"New York, New York, USA",USA,40.7127281,,US,-74.0060152
True,0,North America,"Walker's Pt, York, Maine, USA",USA,43.3424285,,US,-70.4597517
True,0,Europe,"Roth, Down, Northern Ireland",United Kingdom,54.3793174,,GB,-5.9694446
True,0,Europe,"Rathfriland, Down, Northern Ireland",United Kingdom,54.2381785,,GB,-6.1603136
True,0,North America,"Monroe, Missouri, USA",USA,39.494421,,US,-91.9896892
True,0,North America,"Pike, Missouri, USA",USA,39.3683251,,US,-91.1825617
True,0,North America,"St Louis, Missouri, USA",USA,38.6280278,,US,-90.1910154
True,0,North America,"Hannibal, Marion, Missouri, USA",USA,39.7082498,,US,-91.3587413
True,0,North America,"Culpeper, Virginia, USA",USA,38.4733823,,US,-77.9961275
True,0,North America,"Indian Territory, USA",USA,40.8723802,,US,-72.431364
True,0,North America,"Philadelphia, Pennsylvania, USA",USA,39.9527237,,US,-75.1635262
True,0,North America,"Norwalk, Fairfield, Connecticut, USA",USA,41.2111039,,US,-73.4316566
True,0,North America,"Ridgefield, Fairfield, Connecticut, USA",USA,41.2814842,,US,-73.4981792
True,0,North America,"Ridgebury, Fairfield, Connecticut, USA",USA,41.3392119,,US,-73.5122771
True,0,North America,"Connecticut, USA",USA,41.6500201,,US,-72.7342163
True,0,North America,"Grand River, Ontario, Canada",Canada,43.3670861,,CA,-80.3184977
True,0,North America,"Barnstable, Massachusetts, USA",USA,41.7016936,,US,-70.3036163
True,0,North America,"Harwich, Barnstable, Massachusetts, USA",USA,41.6862224,,US,-70.0758508
True,0,North America,"Oblong, New York, USA",USA,41.5846415,,US,-73.5434695
True,0,North America,"Portage, Livingston, New York, USA",USA,42.5604851,,US,-77.9955006
True,0,North America,"Stratford, Fairfield, Connecticut, USA",USA,41.1412078,,US,-73.2637258
True,0,North America,"Cecil, Maryland, USA",USA,39.5729428,,US,-75.9381806
True,0,North America,"Earleville, Cecil, Maryland, USA",USA,39.4153912,,US,-75.9174417
True,0,North America,"Kennebunk, York, Maine, USA",USA,43.384092,,US,-70.545273
True,0,North America,"Biddeford, York, Maine, USA",USA,43.4925843,,US,-70.4533844
True,0,North America,"Tiffin, Defiance, Ohio, USA",USA,41.383501,,US,-84.5158853
True,0,North America,"St. Stephen's, Cecil, Maryland, USA",USA,39.4254064,,US,-75.9176859
True,0,North America,"Bloomington, Monroe, Indiana, USA",USA,39.1670396,,US,-86.5342881
True,0,North America,"Rehoboth, Bristol, Massachusetts, USA",USA,41.8403786,,US,-71.2494938
True,0,North America,"Swansea, Bristol, Massachusetts, USA",USA,41.7481575,,US,-71.1897684
True,0,North America,"Poughkeepsie, Dutchess, New York, USA",USA,41.7065539,,US,-73.9283672
True,0,North America,"Edgartown, Dukes, Massachusetts, USA",USA,41.3894198,,US,-70.5129682
True,0,North America,"Pleasant Valley, Dutchess, New York, USA",USA,41.7583875,,US,-73.802016
True,0,North America,"Little Compton, Newport, Rhode Island, USA",USA,41.5101085,,US,-71.1711648
True,0,North America,"Lebanon, Grafton, New Hampshire, USA",USA,43.643032,,US,-72.251587
True,0,North America,"Saratoga, New York, USA",USA,43.0833231,,US,-73.8712155
True,0,North America,"Esopus, Ulster, New York, USA",USA,41.8278036,,US,-73.965047
True,0,North America,"Rome, Oneida, New York, USA",USA,43.2102196,,US,-75.4583956
True,0,North America,"Easton, Bristol, Massachusetts, USA",USA,42.0245442,,US,-71.1286594
True,0,North America,"Coventry, Tolland, Connecticut, USA",USA,41.7700987,,US,-72.3050803
True,0,North America,"Springfield, Otsego, New York, USA",USA,42.8361841,,US,-74.8534838
True,0,North America,"Wrentham, Norfolk, Massachusetts, USA",USA,42.0667652,,US,-71.3281114
True,0,North America,"Cumberland, Providence, Rhode Island, USA",USA,41.9667656,,US,-71.4328363
True,0,North America,"Tisbury, Dukes, Massachusetts, USA",USA,41.4576223,,US,-70.6156969
True,0,North America,"Middletown Springs, Rutland, Vermont, USA",USA,43.4853063,,US,-73.1182549
True,0,North America,"Bennington, Vermont, USA",USA,42.8788667,,US,-73.1968205
True,0,North America,"Clinton, New York, USA",USA,44.7278943,,US,-73.6686982
True,0,Europe,"Lomersheim, Enzkreis, Baden-Württemberg, Germany",Germany,48.9326355,,DE,8.8668632
True,0,North America,"Andover, Essex, Massachusetts, USA",USA,42.65717,,US,-71.1408776
True,0,North America,"Boston, Suffolk, Massachusetts, USA",USA,42.3588336,,US,-71.0578303
True,0,North America,"Bedford, Hillsborough, New Hampshire, USA",USA,42.9464737,,US,-71.5159015
True,0,North America,"Manchester, Hillsborough, New Hampshire, USA",USA,42.9956397,,US,-71.4547891
True,0,North America,"Nashua, Hillsborough, New Hampshire, USA",USA,42.7656251,,US,-71.4677032
True,0,North America,"Lynn, Essex, Massachusetts, USA",USA,42.466763,,US,-70.9494939
True,0,North America,"Bradford, Essex, Massachusetts, USA",USA,42.7652102,,US,-71.0760878
True,0,North America,"Cambridge, Middlesex, Massachusetts, USA",USA,42.3656347,,US,-71.1040018
True,0,North America,"Sudbury, Middlesex, Massachusetts, USA",USA,42.3834278,,US,-71.4161725
True,0,North America,"Concord, Middlesex, Massachusetts, USA",USA,42.4605189,,US,-71.3488963
True,0,North America,"Stoneham, Middlesex, Massachusetts, USA",USA,42.4802635,,US,-71.0993581
True,0,North America,"Westborough, Worcester, Massachusetts, USA",USA,42.2694308,,US,-71.6129907
True,0,North America,"Brooklyn, Kings, New York, USA",USA,40.6526006,,US,-73.9497211
True,0,North America,"Ipswich, Essex, Massachusetts, USA",USA,42.679273,,US,-70.8411583
True,0,North America,"Stonington, New London, Connecticut, USA",USA,41.5187226,,US,-72.0519409
True,0,North America,"Pottstown, Montgomery, Pennsylvania, USA",USA,40.2452976,,US,-75.6496424
True,0,North America,"Watertown, Middlesex, Massachusetts, USA",USA,42.3652576,,US,-71.1843234
True,0,North America,"Preston City, New London, Connecticut, USA",USA,41.5296768,,US,-71.9848643
True,0,North America,"Scipio, Cayuga, New York, USA",USA,42.7948111,,US,-76.5614129
True,0,North America,"Pottstown, Chester, Pennsylvania, USA",USA,40.2365695,,US,-75.6595827
True,0,North America,"Hadley, Hampshire, Massachusetts, USA",USA,42.3423259,,US,-72.5891221
True,0,North America,"Wethersfield, Hartford, Connecticut, USA",USA,41.7142665,,US,-72.6525922
True,0,North America,"Roxbury, Suffolk, Massachusetts, USA",USA,42.3289067,,US,-71.0850853
True,0,North America,"Hebron, Tolland, Connecticut, USA",USA,41.7501575,,US,-72.4282654
True,0,North America,"Kittery, York, Maine, USA",USA,43.0856724,,US,-70.743658
True,0,North America,"Killingworth, Middlesex, Connecticut, USA",USA,41.3581545,,US,-72.5637023
True,0,North America,"Andover, Tolland, Connecticut, USA",USA,41.7373212,,US,-72.37036
True,0,North America,"Dorchester, Suffolk, Massachusetts, USA",USA,42.2973205,,US,-71.0744952
True,0,North America,"Albemarle, Virginia, USA",USA,38.0085107,,US,-78.6086754
True,0,North America,"Glasgow, Barren, Kentucky, USA",USA,36.995906,,US,-85.9124842
True,0,North America,"Otterville, Cooper, Missouri, USA",USA,38.6997409,,US,-93.0021426
True,0,North America,"Blount, Tennessee, USA",USA,35.6719722,,US,-83.9314465
True,0,North America,"Maryville, Blount, Tennessee, USA",USA,35.7564719,,US,-83.9704593
True,0,North America,"Greenfield, Dade, Missouri, USA",USA,37.4153244,,US,-93.8410449
True,0,North America,"Dade, Missouri, USA",USA,37.4323036,,US,-93.8406302
True,0,North America,"Cooper, Missouri, USA",USA,38.8452595,,US,-92.8249579
True,0,North America,"Emmitsburg, Frederick, Maryland, USA",USA,39.7045417,,US,-77.3269307
True,0,Europe,Germany,Germany,51.1638175,,DE,10.4478313
True,0,North America,"Fredericktown, Cecil, Maryland, USA",USA,39.3662232,,US,-75.8838284
True,0,North America,"Bloomington, McLean, Illinois, USA",USA,40.4797828,,US,-88.9939147
True,0,North America,"Providence, Rhode Island, USA",USA,41.8239891,,US,-71.4128343
True,0,Europe,"Bradford, Devon, England",England,50.8309593,,GB,-4.2412484
True,0,North America,"Charlestown, Suffolk, Massachusetts, USA",USA,42.3778749,,US,-71.0619957
True,0,Europe,"Wigtownshire, Scotland",Scotland,54.9036896,,GB,-5.02225
True,0,Europe,"Kirkcudbright, Kirkcudbrightshire, Scotland",Scotland,54.9044714,,GB,-4.0213174
True,0,Europe,"Stallingborough, Lincolnshire, England",England,53.5871667,,GB,-0.1834359
True,0,Europe,"Stepney, London, England",England,51.5174023,,GB,-0.0462189
True,0,Europe,"Odell, Bedfordshire, England",England,52.0307897,,GB,-0.3304262
True,0,Europe,"Kilsyth, Stirlingshire, Scotland",Scotland,56.0701208,,GB,-3.9087351
True,0,Europe,"Rotterdam, Zuid-Holland, Netherlands",Netherlands,51.9244424,,NL,4.47775
True,0,Europe,"St Helens, Lancashire, England",England,53.7396851,,GB,-2.3808275
True,0,North America,"New Haven, New Haven, Connecticut, USA",USA,41.2976052,,US,-72.9265437
True,0,North America,"Bolton, Worcester, Massachusetts, USA",USA,42.4342336,,US,-71.6097744
True,0,North America,"Plymouth, Windsor, Vermont, USA",USA,43.5355839,,US,-72.7217781
True,0,North America,"Marlborough, Middlesex, Massachusetts, USA",USA,42.3468589,,US,-71.5525188
True,0,North America,"Chester, Windsor, Vermont, USA",USA,43.2629706,,US,-72.5945649
True,0,North America,"Ludlow, Windsor, Vermont, USA",USA,43.3961459,,US,-72.7011648
True,0,Europe,"Bergery, Bedfordshire, England",England,52.0640034,,GB,-0.4111138
True,0,Europe,"Wold, Northamptonshire, England",England,52.3640118,,GB,-0.6459677
True,0,Europe,"Badby, Northamptonshire, England",England,52.2261761,,GB,-1.1814946
True,0,Europe,"Wormleighton, Stratford on Avon, Warwickshire, England",England,52.1790224,,GB,-1.3451912
True,0,Europe,"Daventry District, Northamptonshire, England",England,52.2638832,,GB,-1.1404808
True,0,Europe,"Althorpe, Lincolnshire, England",England,53.5855457,,GB,-0.732955
True,0,Europe,"Fawsley, Northamptonshire, England",England,52.2049814,,GB,-1.1818514
True,0,Europe,"Everdon, Northamptonshire, England",England,52.2108771,,GB,-1.1430057
True,0,Europe,"Northamptonshire, England",England,52.3106138,,GB,-0.865913
True,0,North America,"Farmington, Franklin, Maine, USA",USA,44.671094,,US,-70.151825
True,0,Europe,"Stoke By Nayland, Suffolk, England",England,51.9892706,,GB,0.8966564
True,0,Europe,"Fen Stanton, Huntingdonshire, England",England,52.371044,,GB,-0.2235779
True,0,North America,"Plymouth, Plymouth, Massachusetts, USA",USA,41.9583799,,US,-70.6673851
True,0,North America,"Hartford, Connecticut, USA",USA,41.764582,,US,-72.6908547
True,0,North America,"Dedham, Norfolk, Massachusetts, USA",USA,42.2489143,,US,-71.1755732
True,0,North America,"Bridgewater, Plymouth, Massachusetts, USA",USA,41.9902206,,US,-70.9754432
True,0,Europe,Netherlands,Netherlands,52.2434979,,NL,5.6343227
True,0,North America,"Berkeley, Charles City, Virginia, USA",USA,37.3183245,,US,-77.1793543
True,0,North America,"North Bend, Hamilton, Ohio, USA",USA,39.1525576,,US,-84.7480038
True,0,North America,"White House, Washington, District of Columbia, USA",USA,38.8976387,,US,-77.0365528
True,0,North America,"Crown Hill Cemetery, Indianapolis, Marion, Indiana, USA",USA,39.8187989,,US,-86.1709159
True,0,North America,"Indianapolis, Marion, Indiana, USA",USA,39.7683331,,US,-86.1583502
True,0,North America,"Flatbrookville, Sussex, New Jersey, USA",USA,41.1003736,,US,-74.9635055
True,0,North America,"Vincennes, Knox, Indiana, USA",USA,38.6772691,,US,-87.5286325
True,0,North America,"Francisville, Boone, Kentucky, USA",USA,39.1050586,,US,-84.7243917
True,0,North America,"Boone, Kentucky, USA",USA,38.9589235,,US,-84.7160121
True,0,North America,"Richmond, Richmond, Virginia, USA",USA,37.5758797,,US,-77.5412837
True,0,North America,"Morristown, Middlesex, New Jersey, USA",USA,40.4279992,,US,-74.2560893
True,0,North America,"Mercersburg, Franklin, Pennsylvania, USA",USA,39.8282214,,US,-77.9037226
True,0,North America,"Oxford, Butler, Ohio, USA",USA,39.5103048,,US,-84.7420519
True,0,North America,"Greenwich, Fairfield, Connecticut, USA",USA,41.098817,,US,-73.7214019
True,0,North America,"Honesdale, Wayne, Pennsylvania, USA",USA,41.5771005,,US,-75.2580212
True,0,North America,"Locust Valley, Nassau, New York, USA",USA,40.8775225,,US,-73.5723052
True,0,North America,"Madison, Indiana, USA",USA,40.1624531,,US,-85.7260804
True,0,North America,"Helena, Lewis and Clark, Montana, USA",USA,46.5927425,,US,-112.036277
True,0,North America,"Minneapolis, Hennepin, Minnesota, USA",USA,44.9772995,,US,-93.2654692
True,0,North America,"Raleigh, Wake, North Carolina, USA",USA,35.7803977,,US,-78.6390989
True,0,North America,"Greeneville, Greene, Tennessee, USA",USA,36.1631575,,US,-82.8309861
True,0,North America,"Greene, Tennessee, USA",USA,36.1698443,,US,-82.8766356
True,0,North America,"Telford, Washington, Tennessee, USA",USA,36.2489943,,US,-82.5451479
True,0,North America,"Nashville, Davidson, Tennessee, USA",USA,36.1622767,,US,-86.7742984
True,0,North America,"Bluff City, Sullivan, Tennessee, USA",USA,36.4742705,,US,-82.2609685
True,0,North America,"Elizabethton, Carter, Tennessee, USA",USA,36.3487756,,US,-82.2107617
True,0,North America,"Cedar Creek, Greene, Tennessee, USA",USA,36.0239908,,US,-82.9023711
True,0,North America,"Afton, Greene, Tennessee, USA",USA,36.1939922,,US,-82.738763
True,0,North America,"Madison, North Carolina, USA",USA,35.8482034,,US,-82.6931063
True,0,North America,"Beaufort, North Carolina, USA",USA,35.469331,,US,-76.8927522
True,0,North America,"West Columbia, Brazoria, Texas, USA",USA,29.1438582,,US,-95.6452249
True,0,North America,"Brazoria, Brazoria, Texas, USA",USA,29.0444147,,US,-95.5691126
True,0,North America,"Queens, New York, USA",USA,40.7135078,,US,-73.8283132
True,0,North America,"Chestnut Hill, Boston, Middlesex, Massachusetts, USA",USA,42.3336727,,US,-71.1624971
True,0,North America,"Brookline, Norfolk, Massachusetts, USA",USA,42.332918,,US,-71.1187829
True,0,North America,"Aiken, South Carolina, USA",USA,33.5723191,,US,-81.6182086
True,0,North America,"Norwich, New London, Connecticut, USA",USA,41.5243537,,US,-72.0759008
True,0,Europe,"Nord, Nord-Pas-de-Calais, France",France,50.4442902,,FR,3.0325699
True,0,North America,"Alaska, USA",USA,64.4459613,,US,-149.680909
True,0,North America,"Palm Springs, Palm Beach, Florida, USA",USA,26.6359009,,US,-80.0961538
True,0,Europe,"Cambrai, Nord, Nord-Pas-de-Calais, France",France,50.2475915,,FR,3.1555757
True,0,North America,"Manhattan, Kings, New York, USA",USA,40.7070431,,US,-73.9906444
True,0,North America,"Brattleboro, Windham, Vermont, USA",USA,42.8507588,,US,-72.5572913
True,0,North America,"Cold Spring Harbor, Suffolk, New York, USA",USA,40.8601065,,US,-73.4529025
True,0,North America,"Hartford, Hartford, Connecticut, USA",USA,41.764582,,US,-72.6908547
True,0,North America,"Farmington, Hartford, Connecticut, USA",USA,41.7198216,,US,-72.8320435
True,0,North America,"Tivoli, Dutchess, New York, USA",USA,42.058528,,US,-73.908913
True,0,North America,"Columbia, Herkimer, New York, USA",USA,42.9277366,,US,-75.0427129
True,0,North America,"Denison, Grayson, Texas, USA",USA,33.7556593,,US,-96.536658
True,0,North America,"Abilene, Dickinson, Kansas, USA",USA,38.917252,,US,-97.21377
True,0,North America,"Boone, Iowa, USA",USA,42.0171798,,US,-93.9254114
True,0,North America,"San Antonio, Bexar, Texas, USA",USA,29.4246002,,US,-98.4951405
True,0,North America,"Fort Meade, Anne Arundel, Maryland, USA",USA,39.1027043,,US,-76.7412498
True,0,North America,"Denver, Colorado, USA",USA,39.7392364,,US,-104.984862
True,0,North America,"Trappe, Talbot, Maryland, USA",USA,38.6584506,,US,-76.0579956
True,0,North America,"Fort Knox, Hardin, Kentucky, USA",USA,37.8976552,,US,-85.9038521
True,0,North America,"Dallas, Dallas, Texas, USA",USA,32.7762719,,US,-96.7968559
True,0,North America,"Southampton, Suffolk, New York, USA",USA,40.8842482,,US,-72.3897131
True,0,North America,"Falmouth, Cumberland, Maine, USA",USA,43.7219859,,US,-70.2327055
True,0,North America,"Otis AF Base, Falmouth, Barnstable, Massachusetts, USA",USA,41.5514979,,US,-70.6147519
True,0,North America,"Eastchester Town, Westchester, New York, USA",USA,40.9610563,,US,-73.8064739
True,0,North America,"Hyannis Port, Barnstable, Massachusetts, USA",USA,41.6334445,,US,-70.2983549
True,0,North America,"Bronxville, Westchester, New York, USA",USA,40.9381544,,US,-73.8320784
True,0,North America,"Hull, Plymouth, Massachusetts, USA",USA,42.3020436,,US,-70.9078243
True,0,Europe,"Suffolk, England",England,52.2410014,,GB,1.0465716
True,0,Europe,"Chatsworth house, Derbyshire, England",England,53.2275873,,GB,-1.6113902
True,0,Europe,"Ardèche, Rhône-Alpes, France",France,44.815194,,FR,4.3986525
True,0,North America,"Centerville, Barnstable, Massachusetts, USA",USA,41.6499298,,US,-70.3485753
True,0,North America,"Arlington Cemetery, Arlington, Virginia, USA",USA,38.8846187,,US,-77.0630855
True,0,North America,"Boston, Suffolk, New York, USA",USA,40.8146879,,US,-72.9965503
True,0,North America,"Westminster, Carroll, Maryland, USA",USA,39.5751717,,US,-76.9959168
True,0,North America,"Bethesda, Montgomery, Maryland, USA",USA,38.9812726,,US,-77.1233587
True,0,North America,"Riverdale, New York, USA",USA,40.90056,,US,-73.90639
True,0,North America,"Palm Beach, Palm Beach, Florida, USA",USA,26.7056172,,US,-80.0361517
True,0,North America,"Omaha, Douglas, Nebraska, USA",USA,41.2587459,,US,-95.9383758
True,0,North America,"Grand Rapids, Kent, Michigan, USA",USA,42.9632425,,US,-85.6678639
True,0,North America,"Rancho Mirage, Riverside, California, USA",USA,33.7583005,,US,-116.4347271
True,0,North America,"Glendale, Los Angeles, California, USA",USA,34.1469416,,US,-118.2478471
True,0,North America,"Tucson, Pima, Arizona, USA",USA,32.2228765,,US,-110.974847
True,0,North America,"Harvard, McHenry, Illinois, USA",USA,42.422241,,US,-88.6137101
True,0,North America,"Plains, Sumter, Georgia, USA",USA,32.0340872,,US,-84.3926633
True,0,North America,"Greenway, Charles City, Virginia, USA",USA,37.340981,,US,-77.0816368
True,0,North America,"Cedar Grove, New Kent, Virginia, USA",USA,37.4857339,,US,-77.1165521
True,0,North America,"Cedar Grove Plantation, Clarksville, Mecklenburg, Virginia, USA",USA,36.6240321,,US,-78.5569437
True,0,North America,"Charles City, Virginia, USA",USA,37.3705777,,US,-77.0605098
True,0,North America,"Roxbury, New Kent, Virginia, USA",USA,37.5233762,,US,-77.1440108
True,0,North America,"Montgomery, Montgomery, Alabama, USA",USA,32.3777111,,US,-86.3090775
True,0,North America,"Charles City, Charles City, Virginia, USA",USA,37.342801,,US,-77.0664642
True,0,North America,"Providence Forge, New Kent, Virginia, USA",USA,37.4424264,,US,-77.0439583
True,0,North America,"Williamsburg, Williamsburg, Independent Cities, Virginia, USA",USA,37.1232245,,US,-78.4927721
True,0,North America,"Baltimore, Independent Cities, Maryland, USA",USA,39.5162401,,US,-76.9382069
True,0,North America,"Louisville, Jefferson, Kentucky, USA",USA,38.2542376,,US,-85.759407
True,0,North America,"Tazewell, Virginia, USA",USA,37.1236041,,US,-81.5684129
True,0,North America,"Colma, San Mateo, California, USA",USA,37.6766821,,US,-122.459603
True,0,North America,"San Francisco, San Francisco, California, USA",USA,37.776547,,US,-122.3948371
True,0,North America,"Gardiners Island, Suffolk, New York, USA",USA,41.0841161,,US,-72.0942469
True,0,North America,"Richmond, Independent Cities, Virginia, USA",USA,37.1232245,,US,-78.4927721
True,0,North America,"East Hampton, Suffolk, New York, USA",USA,40.9633868,,US,-72.1847598
True,0,North America,"Sherwood Forest, Charles City, Virginia, USA",USA,37.3340695,,US,-77.0202228
True,0,North America,"New Mexico, USA",USA,34.5802074,,US,-105.996047
True,0,North America,"Sherwood Forest, Virginia, USA",USA,37.3340695,,US,-77.0202228
True,0,North America,"Elliston, Montgomery, Virginia, USA",USA,37.2152145,,US,-80.2300592
True,0,North America,"James City County, Virginia, USA",USA,37.3211485,,US,-76.7972515
True,0,North America,"Wyoming, Pennsylvania, USA",USA,41.5179097,,US,-76.019111
True,0,North America,"Charlottesville, Albemarle, Virginia, USA",USA,38.1410056,,US,-78.450458
True,0,North America,"Caldwell, Essex, New Jersey, USA",USA,40.8398218,,US,-74.2765366
True,0,North America,"Princeton, Mercer, New Jersey, USA",USA,40.3496953,,US,-74.6597376
True,0,North America,"Buffalo, Erie, New York, USA",USA,42.8864163,,US,-78.8781493
True,0,North America,"Tamworth, Carroll, New Hampshire, USA",USA,43.860277,,US,-71.263504
True,0,North America,"New Hampshire, USA",USA,43.4849133,,US,-71.6553992
True,0,North America,"Buzzards Bay, Barnstable, Massachusetts, USA",USA,41.7452589,,US,-70.6154965
True,0,Europe,"Redcar, Yorkshire, England",England,54.6179021,,GB,-1.0687914
True,0,North America,"Exeter, Rockingham, New Hampshire, USA",USA,42.981477,,US,-70.9478343
True,0,North America,"Lamar, Barton, Missouri, USA",USA,37.4950527,,US,-94.2768736
True,0,North America,"Independence, Jackson, Missouri, USA",USA,39.0924792,,US,-94.4137923
True,0,North America,"Kansas City, Jackson, Missouri, USA",USA,39.100105,,US,-94.5781416
True,0,North America,"Zebulon, Wake, North Carolina, USA",USA,35.8212013,,US,-78.3126798
True,0,North America,"Jackson, Missouri, USA",USA,39.0355211,,US,-94.3583509
True,0,North America,"Grandview, Jackson, Missouri, USA",USA,38.8898478,,US,-94.5313816
True,0,North America,"Lamar Heights, Barton, Missouri, USA",USA,37.493659,,US,-94.2977265
True,0,North America,"Hyde Park, Dutchess, New York, USA",USA,41.7841956,,US,-73.9373912
True,0,North America,"Warm Springs, Meriwether, Georgia, USA",USA,32.8904081,,US,-84.6810381
True,0,North America,"Bronx, Bronx, New York, USA",USA,40.8466508,,US,-73.8785937
True,0,North America,"Corona Del Mar, Orange, California, USA",USA,33.5995916,,US,-117.873739
True,0,North America,"Newport Beach, Orange, California, USA",USA,33.6170092,,US,-117.9294401
True,0,North America,"Campobello, Charlotte, New Brunswick, Canada",Canada,44.8938472,,CA,-66.9193702
True,0,Europe,"Birkenhead, Cheshire, England",England,53.2594617,,GB,-2.4894478
True,0,North America,"Pittsburgh, Allegheny, Pennsylvania, USA",USA,40.4406968,,US,-80.0025666
True,0,North America,"Elizabeth, Allen, Louisiana, USA",USA,30.868526,,US,-92.7929262
True,0,Europe,"Majorca, Balearic Islands, Spain",Spain,39.613432,,ES,2.8829185
True,0,North America,"Wilmington, New Castle, Delaware, USA",USA,39.7459468,,US,-75.546589
True,0,North America,"Grosse Pointe, Wayne, Michigan, USA",USA,42.3861485,,US,-82.9118591
True,0,North America,"Mexico City, Distrito Federal, Mexico",Mexico,19.4326296,,MX,-99.1331785
True,0,North America,"Waterloo, Black Hawk, Iowa, USA",USA,42.498275,,US,-92.3328743
True,0,North America,"Waldorf Astoria, New York, New York, New York, USA",USA,40.756502,,US,-73.9733616
True,0,Europe,"London, London, England",England,51.5156177,,GB,-0.0919983
True,0,North America,"Altadena, Los Angeles, California, USA",USA,34.1928193,,US,-118.1374663
True,0,North America,"Pasadena, Los Angeles, California, USA",USA,34.1476507,,US,-118.144155
True,0,North America,"Portola Valley, San Mateo, California, USA",USA,37.3736298,,US,-122.219047
True,0,North America,"Staunton, Augusta, Virginia, USA",USA,38.1242486,,US,-79.0633967
True,0,North America,"Washington Cath, Washington, District of Columbia, USA",USA,38.8950368,,US,-77.0365427
True,0,North America,"Rome, Floyd, Georgia, USA",USA,34.257038,,US,-85.1646726
True,0,North America,"Gainesville, Hall, Georgia, USA",USA,34.2978794,,US,-83.8240663
True,0,Asia,"Pondicherry, India",India,10.9156489,,IN,79.8069488
True,0,North America,"Middletown, Middlesex, Connecticut, USA",USA,41.5171937,,US,-72.6382761
True,0,North America,"Montecito, Santa Barbara, California, USA",USA,34.4366626,,US,-119.6320753
True,0,North America,"South Bethlehem, Armstrong, Pennsylvania, USA",USA,40.9995097,,US,-79.3408743
True,0,North America,"Marietta, Cobb, Georgia, USA",USA,33.9528472,,US,-84.5496148
True,0,North America,"Northampton, Hampshire, Massachusetts, USA",USA,42.3178989,,US,-72.6311006
True,0,North America,"Burlington, Chittenden, Vermont, USA",USA,44.4761601,,US,-73.212906
True,0,North America,"Plainville, Hartford, Connecticut, USA",USA,41.764582,,US,-72.6908547
True,0,North America,"Mecklenburg, North Carolina, USA",USA,35.2356385,,US,-80.8139485
True,0,North America,"Murfreesboro, Rutherford, Tennessee, USA",USA,35.8460396,,US,-86.3921096
True,0,North America,"Montebello, Nelson, Virginia, USA",USA,37.8525306,,US,-79.1316813
True,0,North America,"Calvert, Maryland, USA",USA,38.5288529,,US,-76.537764
True,0,North America,"Pascagoula, Jackson, Mississippi, USA",USA,30.3646795,,US,-88.5585995
True,0,North America,"Lockport, Niagara, New York, USA",USA,43.1687104,,US,-78.696567
True,0,Europe,"Freiburg, Baden-Württemberg, Germany",Germany,47.9960901,,DE,7.8494005
True,0,North America,"St Francisville, West Feliciana, Louisiana, USA",USA,30.7807244,,US,-91.3763353
True,0,North America,"Bayou Sara, West Feliciana, Louisiana, USA",USA,30.7918743,,US,-91.4334204
True,0,North America,"Winchester, Independent Cities, Virginia, USA",USA,37.1232245,,US,-78.4927721
True,0,North America,"Winchester, Frederick, Virginia, USA",USA,39.1433678,,US,-78.1436909
True,0,North America,"New Orleans, Orleans, Louisiana, USA",USA,29.9559145,,US,-90.0730259
True,0,North America,"Rhode Island, USA",USA,41.7962409,,US,-71.5992372
True,0,North America,"Fairview, Todd, Kentucky, USA",USA,36.8424972,,US,-87.3008989
True,0,North America,"St James Parish, Louisiana, USA",USA,30.0096684,,US,-90.7989525
True,0,North America,"Orange, Virginia, USA",USA,38.2490349,,US,-78.013983
True,0,North America,"Louisville, Jefferson, Georgia, USA",USA,33.0015407,,US,-82.4112377
True,0,North America,"Perrysville, Ashland, Ohio, USA",USA,40.6575594,,US,-82.3115503
True,0,North America,"Green Township, Ashland, Ohio, USA",USA,40.6933377,,US,-82.280256
True,0,North America,"Stony Batter, Mercersburg, Franklin, Pennsylvania, USA",USA,39.8282214,,US,-77.9037226
True,0,Europe,"Tyrone, Galway, Ireland",Ireland,53.2030043,,IE,-8.9196593
True,0,North America,"Lemasters, Franklin, Pennsylvania, USA",USA,39.8612026,,US,-77.8594413
True,0,North America,"Lancaster, Lancaster, Pennsylvania, USA",USA,40.0379958,,US,-76.3056707
True,0,North America,"Greensburg, Westmoreland, Pennsylvania, USA",USA,40.3024514,,US,-79.5443274
True,0,North America,"Franklin, Pennsylvania, USA",USA,39.9259345,,US,-77.7485516
True,0,North America,"Hillsboro, Hillsborough, New Hampshire, USA",USA,43.1306345,,US,-71.975915
True,0,North America,"Concord, Merrimack, New Hampshire, USA",USA,43.207178,,US,-71.537476
True,0,North America,"Hampton, Rockingham, New Hampshire, USA",USA,42.9417199,,US,-70.8378746
True,0,North America,"Hillsborough, New Hampshire, USA",USA,42.9373379,,US,-71.751376
True,0,North America,"Fairfield, Franklin, Vermont, USA",USA,44.8016403,,US,-72.945525
True,0,North America,"Albany, New York, USA",USA,42.6511674,,US,-73.754968
True,0,North America,"Culpeper, Culpeper, Virginia, USA",USA,38.4721707,,US,-77.9934369
True,0,North America,"Menands, Albany, New York, USA",USA,42.6920233,,US,-73.7245639
True,0,North America,"Englewood, Bergen, New Jersey, USA",USA,40.8929329,,US,-73.9726508
True,0,North America,"Colorado Springs, El Paso, Colorado, USA",USA,38.8339578,,US,-104.825348
True,0,North America,"Mount Kisco, Westchester, New York, USA",USA,41.2042616,,US,-73.7270761
True,0,North America,"West Chester, Chester, Pennsylvania, USA",USA,39.9597213,,US,-75.6059638
True,0,North America,"Point Pleasant, Clermont, Ohio, USA",USA,38.8945107,,US,-84.2338243
True,0,North America,"Grants Tomb, Riverside Park, New York, New York, New York, USA",USA,40.8068797,,US,-73.9686596
True,0,North America,"Mount McGregor, Moreau, Saratoga, New York, USA",USA,43.1982984,,US,-73.7497
True,0,North America,"White Haven, St Louis, Missouri, USA",USA,38.6280278,,US,-90.1910154
True,0,North America,"Bethel, Clermont, Ohio, USA",USA,38.9636771,,US,-84.0807664
True,0,North America,"San Diego, San Diego, California, USA",USA,32.7174202,,US,-117.162772
True,0,North America,"Sandberg, Los Angeles, California, USA",USA,34.726046,,US,-118.681498
True,0,North America,"Washington, Wisconsin, USA",USA,43.3734986,,US,-88.2370888
True,0,North America,"Hardscrabble, Somerset, New Jersey, USA",USA,40.7418051,,US,-74.5633049
True,0,North America,"Los Altos, Santa Clara, California, USA",USA,37.3790629,,US,-122.116578
True,0,North America,"Adrian, Lenawee, Michigan, USA",USA,41.8975152,,US,-84.0373054
True,0,North America,"San Diego, California, USA",USA,32.7174202,,US,-117.162772
True,0,Europe,"Capri, Napoli, Campania, Italy",Italy,40.5488429,,IT,14.2283708
True,0,North America,"Warwick, Cecil, Maryland, USA",USA,39.4167785,,US,-75.7782679
True,0,North America,"Orange, Ashland, Ohio, USA",USA,40.9470142,,US,-82.282169
True,0,North America,"Lakeview Cemetery, Cleveland, Cuyahoga, Ohio, USA",USA,41.5116874,,US,-81.5888347
True,0,North America,"Elberon, Monmouth, New Jersey, USA",USA,40.2692785,,US,-73.9918038
True,0,North America,"Cleveland, Cuyahoga, Ohio, USA",USA,41.4996574,,US,-81.6936772
True,0,North America,"Garrettsville, Portage, Ohio, USA",USA,41.284222,,US,-81.096486
True,0,North America,"Hiram, Portage, Ohio, USA",USA,41.312555,,US,-81.14371
True,0,North America,"Williamstown, Berkshire, Massachusetts, USA",USA,42.7135472,,US,-73.2094566
True,0,North America,"Mentor, Lake, Ohio, USA",USA,41.6664781,,US,-81.3399769
True,0,North America,"Falmouth, Barnstable, Massachusetts, USA",USA,41.5514979,,US,-70.6147519
True,0,North America,USA,USA,39.7837304,,US,-100.445882
True,0,North America,"Spiegel Grove, Fremont, Sandusky, Ohio, USA",USA,41.340429,,US,-83.1305712
True,0,North America,"Delaware, Delaware, Indiana, USA",USA,40.2445757,,US,-85.3962329
True,0,North America,"Fremont, Sandusky, Ohio, USA",USA,41.3473413,,US,-83.1134972
True,0,North America,"Chillicothe, Ross, Ohio, USA",USA,39.3331197,,US,-82.9824019
True,0,North America,"Toledo, Lucas, Ohio, USA",USA,41.6529143,,US,-83.5378173
True,0,North America,"Marion, Ohio, USA",USA,40.5885271,,US,-83.1895249
True,0,North America,"Tampa, Hillsborough, Florida, USA",USA,27.9449854,,US,-82.4583107
True,0,North America,"Charleston, Kanawha, West Virginia, USA",USA,38.3505995,,US,-81.6332812
True,0,North America,"Lewiston, Androscoggin, Maine, USA",USA,44.0990717,,US,-70.2177099
True,0,North America,"Croton-on-Hudson, Westchester, New York, USA",USA,41.2088215,,US,-73.8905175
True,0,North America,"Erie, Ohio, USA",USA,41.3506462,,US,-82.640448
True,0,North America,"Clearwater, Pinellas, Florida, USA",USA,27.9658533,,US,-82.8001026
True,0,North America,"Niles, Trumbull, Ohio, USA",USA,41.1808345,,US,-80.7653797
True,0,North America,"Canton, Stark, Ohio, USA",USA,40.7985464,,US,-81.3749508
True,0,North America,"Wolf Creek, Mercer, Pennsylvania, USA",USA,41.2181436,,US,-80.0642333
True,0,North America,"Lisbon, Columbiana, Ohio, USA",USA,40.7720044,,US,-80.7681336
True,0,North America,"Bryn Mawr, Montgomery, Pennsylvania, USA",USA,40.0238245,,US,-75.3173407
True,0,North America,"Waterbury, New Haven, Connecticut, USA",USA,41.3721849,,US,-72.858108
True,0,North America,"East Baintree, Norfolk, Massachusetts, USA",USA,42.1538607,,US,-71.1828015
True,0,North America,St Kitts and Nevis,Saint Kitts and Nevis,17.250512,,KN,-62.6725973
True,0,North America,"Winona, Minnesota, USA",USA,44.0500054,,US,-91.6392294
True,0,North America,"Blooming Grove, Richland, Ohio, USA",USA,40.9476027,,US,-82.5329796
True,0,North America,"Marion, Marion, Ohio, USA",USA,40.5886259,,US,-83.1287349
True,0,North America,"Howard, Knox, Ohio, USA",USA,40.4088223,,US,-82.3268249
True,0,North America,"Welches, Clackamas, Oregon, USA",USA,45.3384997,,US,-121.9634026
True,0,North America,"Asbury Park, Monmouth, New Jersey, USA",USA,40.2203907,,US,-74.0120817
True,0,North America,"Quincy, Norfolk, Massachusetts, USA",USA,42.2509914,,US,-71.0037374
True,0,North America,"Speaker's Room, Congress, Washington, District of Columbia, USA",USA,38.8886738,,US,-77.004636
True,0,North America,"Long Island City, Queens, New York, USA",USA,40.7455316,,US,-73.9484995
True,0,North America,"Lebanon, Madison, New York, USA",USA,42.7814571,,US,-75.6476841
True,0,Europe,"Kent, England",England,51.2070749,,GB,0.7210362
True,0,Europe,"Berlin, Berlin, Germany",Germany,52.503379,,DE,13.3386522
True,0,Europe,"Saint Petersburg, Russia",Russian Federation,59.9606739,,RU,30.1586551
True,0,North America,"Medford, Middlesex, Massachusetts, USA",USA,42.4184296,,US,-71.1061639
True,0,North America,"Shadwell, Albemarle, Virginia, USA",USA,38.0129175,,US,-78.3955647
True,0,North America,"Monticello, Charlottesville, Albemarle, Virginia, USA",USA,38.0002518,,US,-78.4888829
True,0,North America,"Charlottesville, Independent Cities, Virginia, USA",USA,37.1232245,,US,-78.4927721
True,0,North America,"Richmond, Henrico, Virginia, USA",USA,37.5922778,,US,-77.4193382
True,0,North America,"Eppington, Winterpock, Chesterfield, Virginia, USA",USA,37.3459831,,US,-77.7194396
True,0,North America,"Tuckahoe, Goochland, Virginia, USA",USA,37.6151025,,US,-77.6491356
True,0,North America,"City Point, Virginia, USA",USA,37.3058161,,US,-77.2974695
True,0,North America,"Millbrook, Buckingham, Virginia, USA",USA,37.5558826,,US,-78.5547172
True,0,North America,"Chesterfield, Virginia, USA",USA,37.3859982,,US,-77.578509
True,0,North America,"Goochland, Virginia, USA",USA,37.7204342,,US,-77.8837984
True,0,North America,"Goochland, Goochland, Virginia, USA",USA,37.696066,,US,-77.8979038
True,0,North America,"Dunlora, Virginia, USA",USA,38.066894,,US,-78.4543399
True,0,North America,"Henrico, Virginia, USA",USA,37.5131191,,US,-77.3465081
True,0,North America,"Tuckahoe, Henrico, Virginia, USA",USA,37.5901463,,US,-77.5563761
True,0,North America,"Port Conway, King George, Virginia, USA",USA,38.1773528,,US,-77.1860884
True,0,North America,"Montpelier Station, Orange, Virginia, USA",USA,38.2283821,,US,-78.1767752
True,0,North America,"Guilford, North Carolina, USA",USA,36.0875688,,US,-79.7888515
True,0,North America,"Loudoun, Virginia, USA",USA,39.0984586,,US,-77.6705008
True,0,Europe,"Paris, Île-de-France, France",France,48.8534951,,FR,2.3483915
True,0,North America,"Aldie, Loudoun, Virginia, USA",USA,38.975841,,US,-77.6460477
True,0,North America,"Williamsburg, James City County, Virginia, USA",USA,37.2328361,,US,-76.6440645
True,0,North America,"Waxhaws, South Carolina, USA",USA,34.006398,,US,-80.9491634
True,0,North America,"Pittsylvania, Virginia, USA",USA,36.8121678,,US,-79.4364106
True,0,North America,"The Hermitage, Nashville, Davidson, Tennessee, USA",USA,36.2138124,,US,-86.6129944
True,0,North America,"Kinderhook, Columbia, New York, USA",USA,42.3953617,,US,-73.6978983
True,0,North America,"Lindenwald, Kinderhook, Columbia, New York, USA",USA,42.3698216,,US,-73.7040339
True,0,North America,"Albany, Albany, New York, USA",USA,42.6511674,,US,-73.754968
True,0,North America,"Columbia, New York, USA",USA,42.2415027,,US,-73.6723456
True,0,North America,"Hudson, New Jersey, USA",USA,40.7381635,,US,-74.0550731
True,0,Europe,"Paris, Paris, Île-de-France, France",France,48.8588897,,FR,2.320041
True,0,North America,"Beacon, Dutchess, New York, USA",USA,41.5048402,,US,-73.9695409
True,0,North America,"Sumter, South Carolina, USA",USA,33.9204354,,US,-80.3414693
True,0,Europe,"Bournemouth, Hampshire, England",England,50.8102455,,GB,-1.1497009
True,0,North America,"Stonewall, Gillespie, Texas, USA",USA,30.2359344,,US,-98.6646189
True,0,North America,"Karnack, Harrison, Texas, USA",USA,32.6679232,,US,-94.1704653
True,0,North America,"Austin, Travis, Texas, USA",USA,30.2711286,,US,-97.7436995
True,0,North America,"Locke, Cayuga, New York, USA",USA,42.6605817,,US,-76.4305376
True,0,North America,"Stillwater, Saratoga, New York, USA",USA,42.9384101,,US,-73.6531731
True,0,North America,"Morristown, Morris, New Jersey, USA",USA,40.7970382,,US,-74.4809868
True,0,North America,"Bennington, Bennington, Vermont, USA",USA,42.8788667,,US,-73.1968205
True,0,North America,"East Aurora, Erie, New York, USA",USA,42.7689141,,US,-78.6177611
True,0,North America,"Aurora, Cayuga County, New York, USA",USA,42.7539591,,US,-76.7024485
True,0,North America,"Scott, Virginia, USA",USA,36.7117473,,US,-82.5893052
True,0,North America,"Hanover, Virginia, USA",USA,37.744783,,US,-77.4464165
True,0,North America,"Wake, North Carolina, USA",USA,35.7979355,,US,-78.6118311
True,0,Europe,"Carlisle, Cumberland, England",England,54.8948478,,GB,-2.9362311
True,0,Europe,"Tyrone, Northern Ireland",United Kingdom,54.6353341,,GB,-7.2611485
True,0,North America,"Pikeville, Bledsoe, Tennessee, USA",USA,35.6054921,,US,-85.1892276
True,0,North America,"Orange, North Carolina, USA",USA,36.0605095,,US,-79.1172679
True,0,North America,"Washington, Indiana, USA",USA,38.5612578,,US,-86.1179768
True,0,North America,"El Dorado, California, USA",USA,38.7574137,,US,-120.5276129
True,0,North America,"Hockessin, New Castle, Delaware, USA",USA,39.7874275,,US,-75.6879987
True,0,North America,"London Grove, Chester, Pennsylvania, USA",USA,39.8686308,,US,-75.771824
True,0,North America,"Sullivan, Tennessee, USA",USA,36.4966673,,US,-82.286903
True,0,North America,"Carter, Tennessee, USA",USA,36.2840805,,US,-82.1194772
True,0,Europe,"Holywell, Herefordshire, England",England,52.055803,,GB,-2.6813638
True,0,Europe,"Westminster, London, England",England,51.5004439,,GB,-0.1265398
True,0,North America,"Spartanburg, Spartanburg, South Carolina, USA",USA,34.9498007,,US,-81.9320157
True,0,North America,"Honolulu, Honolulu, Hawaii, USA",USA,21.304547,,US,-157.855676
True,0,North America,"Midland, Midland, Texas, USA",USA,31.9973662,,US,-102.077948
True,0,North America,"White Marsh, Gloucester, Virginia, USA",USA,37.3423646,,US,-76.5213397
True,0,North America,"Gallatin, Sumner, Tennessee, USA",USA,36.3883031,,US,-86.4475898
True,0,North America,"Narragansett Pier, Washington, Rhode Island, USA",USA,41.4262048,,US,-71.4748061
True,0,North America,"Columbus, Muscogee, Georgia, USA",USA,32.4610708,,US,-84.9880449
True,0,North America,"Boone, Boone, Illinois, USA",USA,42.3694695,,US,-88.7447988
True,0,North America,"Denver, Denver, Colorado, USA",USA,39.6766157,,US,-104.9623745
True,0,North America,"Autauga, Alabama, USA",USA,32.5165255,,US,-86.6319403
True,0,North America,"Scottsville, Harrison, Texas, USA",USA,32.5404281,,US,-94.2382471
True,0,North America,"Harrison, Texas, USA",USA,32.5233959,,US,-94.3982158
True,0,North America,"Marshall, Harrison, Texas, USA",USA,32.5447756,,US,-94.3661004
True,0,Europe,"Frankfurt am Main, Frankfurt am Main, Hessen, Germany",Germany,50.2164354,,DE,8.6915513
True,0,North America,"Artesia, Los Angeles, California, USA",USA,33.8653563,,US,-118.0806221
True,0,North America,"Port Byron, Rock Island, Illinois, USA",USA,41.6063216,,US,-90.3357762
True,0,North America,"Long Island City, Queens County, New York, USA",USA,40.7455316,,US,-73.9484995
True,0,North America,"Wayne, Ohio, USA",USA,40.8615819,,US,-81.9034617
True,0,North America,"Wooster, Wayne, Ohio, USA",USA,40.7980976,,US,-81.9397733
True,0,North America,"Millwood, Knox, Ohio, USA",USA,40.3995094,,US,-82.2776566
True,0,North America,"Fullerton, Orange, California, USA",USA,33.8708215,,US,-117.929416
True,0,North America,"Orange, California, USA",USA,33.750631,,US,-117.8722311
True,0,North America,"Richland, Vinton, Ohio, USA",USA,39.1870147,,US,-82.5973848
True,0,North America,"California, USA",USA,36.7014631,,US,-118.755997
True,0,North America,"Lima, Delaware, Pennsylvania, USA",USA,39.9195322,,US,-75.4427497
True,0,North America,"Chester, Delaware, Pennsylvania, USA",USA,39.849557,,US,-75.3557458
True,0,Europe,"Landwade, Suffolk, England",England,52.2843001,,GB,0.385672
True,0,Europe,"Wallington, Hertfordshire, England",England,51.9872386,,GB,-0.1190634
True,0,Europe,"Ludgershall, Wiltshire, England",England,51.256957,,GB,-1.6233744
True,0,North America,"Hornell, Steuben, New York, USA",USA,42.3278477,,US,-77.6611025
True,0,North America,"Overpeck, Butler, Ohio, USA",USA,39.45089,,US,-84.5143903
True,0,North America,"Oxford, Calhoun, Alabama, USA",USA,33.6149211,,US,-85.8339391
True,0,North America,"Beaver, Beaver, Pennsylvania, USA",USA,40.6953896,,US,-80.3047887
True,0,Europe,France,France,46.603354,,FR,1.8883335
True,0,North America,"Fredericksburg, Independent Cities, Virginia, USA",USA,37.1232245,,US,-78.4927721
True,0,North America,"Hatteras, Dare, North Carolina, USA",USA,35.2252064,,US,-75.5279144
True,0,North America,"Hartford, Windsor, Vermont, USA",USA,43.6488351,,US,-72.3193634
True,0,North America,"Portage, Ohio, USA",USA,41.1496775,,US,-81.2082
True,0,North America,"Pickaway, Ohio, USA",USA,39.6725327,,US,-83.0373284
True,0,North America,"Santa Barbara, Santa Barbara, California, USA",USA,34.4221319,,US,-119.702667
True,0,North America,"Salem Center, Westchester, New York, USA",USA,41.3292613,,US,-73.5981827
True,0,North America,"Thermal, Riverside, California, USA",USA,33.6275782,,US,-116.1250453
True,0,North America,"Berkeley, Alameda, California, USA",USA,37.8708393,,US,-122.272863
True,0,Asia,"Tokyo, Tokyo, Japan",Japan,35.6812546,,JP,139.766706
True,0,North America,"Santa Monica, Los Angeles, California, USA",USA,34.0194704,,US,-118.491227
True,0,Europe,"Preston, Lancashire, England",England,53.7593363,,GB,-2.6992717
True,0,North America,"St Louis, Independent Cities, Missouri, USA",USA,38.7604815,,US,-92.5617875
True,0,North America,"Cumberland, Allegany, Maryland, USA",USA,39.6526498,,US,-78.762383
True,0,North America,"Liberty Heights, Fayette, Kentucky, USA",USA,38.0389664,,US,-84.4657709
True,0,North America,"Amherst, Hillsborough, New Hampshire, USA",USA,42.8642874,,US,-71.6252484
True,0,North America,"Brunswick, Cumberland, Maine, USA",USA,43.9166529,,US,-69.9659438
True,0,North America,"Maine, USA",USA,45.709097,,US,-68.8590201
True,0,North America,"Southold, Suffolk, New York, USA",USA,41.067221,,US,-72.4408007
True,0,North America,"Walpack, Sussex, New Jersey, USA",USA,41.1358864,,US,-74.895777
True,0,North America,"Wallpack Center, Sussex, New Jersey, USA",USA,41.1588924,,US,-74.880231
True,0,North America,"Cook, Illinois, USA",USA,41.8197385,,US,-87.756525
True,0,North America,"Kalamazoo, Kalamazoo, Michigan, USA",USA,42.291707,,US,-85.5872286
True,0,North America,"Hollywood, Broward, Florida, USA",USA,26.0112014,,US,-80.1494901
True,0,North America,"Elkhart, Elkhart, Indiana, USA",USA,41.6819935,,US,-85.9766671
True,0,North America,"Wichita, Kansas, USA",USA,37.6922361,,US,-97.3375448
True,0,Africa,"Rachuonyo, Nyang'oma, Nyanza, Kenya",Kenya,-0.0113313,,KE,34.3458874
True,0,Africa,"Nairobi, Nairobi Area, Kenya",Kenya,-1.2574349,,KE,36.8956166
True,0,North America,"Putneys Mill, New Kent, Virginia, USA",USA,37.6053575,,US,-77.0929718
True,0,North America,"Eastville, Northampton, Virginia, USA",USA,37.3526337,,US,-75.9457726
True,0,North America,"Clarksburg, Harrison, West Virginia, USA",USA,39.2806451,,US,-80.3445341
True,0,North America,"Philadelphia, Philadelphia, Pennsylvania, USA",USA,39.9527237,,US,-75.1635262
True,0,North America,"Accomack, Virginia, USA",USA,37.7422207,,US,-75.6743538
True,0,North America,"Hermitage, Davidson, Tennessee, USA",USA,36.1961664,,US,-86.6224959
True,0,North America,"Schenectady, Schenectady, New York, USA",USA,42.8142432,,US,-73.9395687
True,0,North America,"Fort Washington, Prince George's, Maryland, USA",USA,38.7379949,,US,-77.0043136
True,0,North America,"Decaturville, Decatur, Tennessee, USA",USA,35.5842372,,US,-88.119479
True,0,North America,"Decatur, Tennessee, USA",USA,35.6067875,,US,-88.1083982
True,0,North America,"Yates City, Knox, Illinois, USA",USA,40.7790141,,US,-90.0153424
True,0,North America,"Monmouth, Warren, Illinois, USA",USA,40.9127103,,US,-90.6472477
True,0,North America,"Emporium, Cameron, Pennsylvania, USA",USA,41.5114521,,US,-78.2352872
True,0,North America,"Swissmont, Elk, Pennsylvania, USA",USA,41.4767287,,US,-78.4875196
True,0,Europe,"Thal, Steiermark, Austria",Austria,47.0792405,,AT,15.3549817
True,0,North America,"Texarkana, Miller, Arkansas, USA",USA,33.4254259,,US,-94.0430937
True,0,North America,"Nevada, Arkansas, USA",USA,33.6413476,,US,-93.3055491
True,0,North America,"Harris, Georgia, USA",USA,32.7251788,,US,-84.9104641
True,0,North America,"Craven, North Carolina, USA",USA,35.0808574,,US,-77.0439978
True,0,Europe,"Kennington, Surrey, England",England,51.2715316,,GB,-0.3414524
True,0,North America,"Redstone, Fayette, Pennsylvania, USA",USA,40.074796,,US,-79.8036548
True,0,North America,"Abington, Lackawanna, Pennsylvania, USA",USA,41.5562923,,US,-75.6864948
True,0,North America,"Jennings, Indiana, USA",USA,38.9957749,,US,-85.6359201
True,0,North America,"Baltimore Highlands, Baltimore, Maryland, USA",USA,39.2929083,,US,-76.5663087
True,0,North America,"Fermanagh Township, Juniata, Pennsylvania, USA",USA,40.6129018,,US,-77.4112056
True,0,North America,"Northumberland, Pennsylvania, USA",USA,40.8488473,,US,-76.6943741
True,0,North America,"Joppa, Harford, Maryland, USA",USA,39.433719,,US,-76.3577373
True,0,North America,"Sadsbury, Chester, Pennsylvania, USA",USA,39.9817979,,US,-75.9052465
True,0,Europe,"Timahoe, Kildare, Ireland",Ireland,53.3333288,,IE,-6.8371788
True,0,North America,"Washington, Kentucky, USA",USA,37.7310874,,US,-85.1750475
True,0,North America,"Concord, Butler, Pennsylvania, USA",USA,40.9923692,,US,-79.8322352
True,0,North America,"Huntington, Suffolk, New York, USA",USA,40.868154,,US,-73.425676
True,0,Europe,"Wiltshire, England",England,51.324162,,GB,-1.9032487
True,0,Europe,"Elvington, Yorkshire, England",England,53.9238188,,GB,-0.9881338
True,0,Europe,"Aston le Walls, Northamptonshire, England",England,52.1546172,,GB,-1.2742734
True,0,Europe,"Newnham, Northamptonshire, England",England,52.2333842,,GB,-1.1430051
True,0,North America,"Randolph, Missouri, USA",USA,39.4418988,,US,-92.5009215
True,0,North America,"Henry, Kentucky, USA",USA,38.447983,,US,-85.1191168
True,0,North America,"Troy, Albany, New York, USA",USA,42.7007727,,US,-73.7048623
True,0,North America,"Kingston, Ulster, New York, USA",USA,41.9287812,,US,-74.0023825
True,0,North America,"Waterford, Saratoga, New York, USA",USA,42.7925778,,US,-73.6812293
True,0,North America,"Plainfield, Windham, Connecticut, USA",USA,41.7326541,,US,-71.9041463
True,0,North America,"Knoxville, Knox, Tennessee, USA",USA,35.9603948,,US,-83.9210261
True,0,Europe,"St. Andrew's Church, Clifton, Bristol, Gloucestershire, England",England,51.8527674,,GB,-2.2553694
True,0,North America,"St Thomas Church, New York, New York, New York, USA",USA,43.0718511,,US,-75.3317783
True,0,North America,"Warrensburg, Greene, Tennessee, USA",USA,36.1273197,,US,-83.094326
True,0,North America,"Hot Springs, Madison, North Carolina, USA",USA,35.8923253,,US,-82.8290318
True,0,North America,"Roswell, Fulton, Georgia, USA",USA,34.02332,,US,-84.360022
True,0,Europe,"Madrid, Madrid, Madrid, Spain",Spain,40.4237276,,ES,-3.6899043
True,0,North America,"Fort Monroe, Elizabeth, Virginia, USA",USA,36.8935018,,US,-76.3314764
True,0,North America,"Newport, Rhode Island, USA",USA,41.4899827,,US,-71.3137707
True,0,North America,"Kent, Michigan, USA",USA,43.0024013,,US,-85.5502718
True,0,North America,"Ch of Ascension, New York, New York, New York, USA",USA,40.7337665,,US,-73.9957618
True,0,North America,"Bristol, Bucks, Pennsylvania, USA",USA,40.1229002,,US,-74.8644706
True,0,Europe,"Westminster, Abbey, London, England",England,51.4981579,,GB,-0.1319441
True,0,North America,"Independence, Clay, Missouri, USA",USA,39.3187409,,US,-94.4046405
True,0,North America,"Malibu, Los Angeles, California, USA",USA,34.035591,,US,-118.689423
True,0,North America,"Los Angeles, California, USA",USA,34.0536909,,US,-118.242766
True,0,North America,"Burlington, Des Moines, Iowa, USA",USA,40.8126922,,US,-91.1020205
True,0,North America,"Colorado, USA",USA,38.7251776,,US,-105.607716
True,0,North America,"Miami Beach, Miami-Dade, Florida, USA",USA,25.7929198,,US,-80.1353006
True,0,North America,"Qualicum Beach, British Columbia, Canada",Canada,49.3479861,,CA,-124.4439409
True,0,North America,"Dutchess, New York, USA",USA,41.7194303,,US,-73.7516205
True,0,North America,"Nahant, Essex, Massachusetts, USA",USA,42.4264859,,US,-70.9189371
True,0,North America,"Monterey, California, USA",USA,36.2231079,,US,-121.387742
True,0,North America,"Stanford, Santa Clara, California, USA",USA,37.4265407,,US,-122.1703055
True,0,North America,"Prairie du Chien, Crawford, Wisconsin, USA",USA,43.05194,,US,-91.1409933
True,0,North America,"Calvary Church, New York, New York, New York, USA",USA,40.7389229,,US,-73.9867394
True,0,North America,"Shaker Heights, Cuyahoga, Ohio, USA",USA,41.4739419,,US,-81.5370671
True,0,North America,"Harewood, Jefferson, West Virginia, USA",USA,39.3023235,,US,-77.9161076
True,0,North America,"Trinity E Church, New York, New York, New York, USA",USA,40.7260202,,US,-73.9801228
True,0,North America,"Davidson, Tennessee, USA",USA,36.189724,,US,-86.7857862
True,0,North America,"Catskill, Greene, New York, USA",USA,42.2173102,,US,-73.8645734
True,0,North America,"Spotsylvania, Virginia, USA",USA,38.1880936,,US,-77.6741751
True,0,North America,"Washington, Tennessee, USA",USA,36.2636501,,US,-82.4911791
True,0,North America,"Madison, Mississippi, USA",USA,32.6308318,,US,-90.0040817
True,0,North America,"Midland, Texas, USA",USA,31.83688,,US,-102.0103767
True,0,North America,"Richland, Ohio, USA",USA,40.776322,,US,-82.5302254
True,0,North America,"Minnesota, USA",USA,45.9896587,,US,-94.6113288
True,0,North America,"Cattaraugus, New York, USA",USA,42.2234823,,US,-78.6477096
True,0,North America,"Smith Twp., Washington, Pennsylvania, USA",USA,40.369102,,US,-80.3668343
True,0,North America,"Smith, Washington, Pennsylvania, USA",USA,40.369102,,US,-80.3668343
True,0,North America,"Chester, Pennsylvania, USA",USA,39.9829308,,US,-75.7652424
True,0,North America,"Alglen, Chester, Pennsylvania, USA",USA,39.9829308,,US,-75.7652424
True,0,North America,"Salisbury, Lancaster, Pennsylvania, USA",USA,40.0403575,,US,-75.9937401
True,0,North America,"East Caln, Chester, Pennsylvania, USA",USA,40.0124277,,US,-75.6709997
True,0,North America,"Warrington, York, Pennsylvania, USA",USA,40.0656653,,US,-76.9368682
True,0,North America,"Kennebunkport, York, Maine, USA",USA,43.3614989,,US,-70.4771132
True,0,North America,"Bourbon, Kentucky, USA",USA,38.1944867,,US,-84.2046611
True,0,North America,"Bucks, Pennsylvania, USA",USA,40.3451668,,US,-75.1263909
True,0,North America,"St. Stephan's, Cecil, Maryland, USA",USA,39.5729428,,US,-75.9381806
True,0,North America,"South Hadley, Hampshire, Massachusetts, USA",USA,42.2591392,,US,-72.5751341
True,0,North America,"Hyannis, Barnstable, Massachusetts, USA",USA,41.6535345,,US,-70.2823287
True,0,North America,"The Forest, Charles City, Virginia, USA",USA,37.3705777,,US,-77.0605098
True,0,North America,"Monroe's Creek, Westmoreland, Virginia, USA",USA,38.1153203,,US,-76.7567355
True,0,North America,"Pittsfield, Berkshire County, Massachusetts, USA",USA,42.4484778,,US,-73.2541069
True,0,North America,"Oyster Bay Cove, Nassau, New York, USA",USA,40.8709319,,US,-73.5109566
True,0,North America,"Palo Alto, Santa Clara, California, USA",USA,37.4443293,,US,-122.1598465
True,0,North America,"Braintree, Norfolk, Massachusetts, USA",USA,42.2205956,,US,-71.0041229
